STARLINK-2022           
1 47643U 21012Z   24133.56313221  .00010408  00000+0  71709-3 0  9995
2 47643  53.0526 161.9728 0001327 101.8128 258.3010 15.06373833179864
